{
  "norad_id": 32791,
  "name": "SEEDS II (CO-66)",
  "history": [
    {
      "epoch": "2026-03-28T12:01:52.460832",
      "apogee_km": 477.4778128163289,
      "perigee_km": 474.95952254402255,
      "latitude_deg": 62.41517137692502,
      "longitude_deg": 27.224956480320543,
      "semi_major_axis_km": 6854.355667680175,
      "eccentricity": 0.0001837,
      "inclination_deg": 97.7522,
      "raan_deg": 81.7278,
      "arg_perigee_deg": 175.4551,
      "mean_anomaly_deg": 184.6705,
      "mean_motion_rev_day": 15.2986394
    }
  ]
}